OBJECT_NAME,OBJECT_ID,EPOCH,MEAN_MOTION,ECCENTRICITY,INCLINATION,RA_OF_ASC_NODE,ARG_OF_PERICENTER,MEAN_ANOMALY,EPHEMERIS_TYPE,CLASSIFICATION_TYPE,NORAD_CAT_ID,ELEMENT_SET_NO,REV_AT_EPOCH,BSTAR,MEAN_MOTION_DOT,MEAN_MOTION_DDOT
ONEWEB-0572,2023-004M,2026-06-06T15:51:03.413952,13.17647114,.00018217,87.9141,7.9596,92.5355,267.5985,0,U,55151,999,16609,-.86231045E-4,-.21E-6,0
ONEWEB-0573,2023-004N,2026-06-06T19:05:54.115008,13.18685796,.00017877,87.9157,337.5383,119.6638,240.4672,0,U,55152,999,16832,-.29956862E-3,-.105E-5,0
ONEWEB-0588,2023-004P,2026-06-06T18:56:10.689504,13.18685971,.00022231,87.9155,337.5401,100.4419,259.6964,0,U,55153,999,16832,-.1812299E-3,-.59E-6,0
ONEWEB-0598,2023-004Q,2026-06-06T20:38:40.979328,13.11415365,.00012991,87.8895,23.1245,105.5136,254.6135,0,U,55154,999,16454,.47675209E-3,.182E-5,0
ONEWEB-0599,2023-004R,2026-06-06T20:23:13.015680,13.17647989,.00016017,87.9144,7.9215,83.4850,276.6464,0,U,55155,999,16612,-.43564776E-4,-.4E-7,0
ONEWEB-0614,2023-004S,2026-06-06T20:31:21.383904,13.11416312,.00019846,87.8898,23.1341,83.5420,276.5934,0,U,55156,999,16448,.94471637E-3,.348E-5,0
ONEWEB-0616,2023-004T,2026-06-06T19:34:37.591968,13.17649331,.00012957,87.9147,7.9310,58.2276,301.8982,0,U,55157,999,16633,-.19811487E-3,-.64E-6,0
ONEWEB-0617,2023-004U,2026-06-06T14:44:40.717824,13.11416722,.00021892,87.8900,23.1730,87.9361,272.2018,0,U,55158,999,16447,.14001996E-2,.509E-5,0
ONEWEB-0618,2023-004V,2026-06-06T13:02:21.042240,15.13062902,.00110509,86.9098,181.9555,346.3897,13.7044,0,U,55159,999,18065,.32776849E-3,.5833E-4,0
ONEWEB-0619,2023-004W,2026-06-06T20:20:47.941440,13.17648390,.00021725,87.9152,7.9048,77.2468,282.8906,0,U,55160,999,16623,-.25491469E-3,-.86E-6,0
ONEWEB-0620,2023-004X,2026-06-06T14:37:20.292096,13.11419419,.00017809,87.8895,23.1832,91.7102,268.4230,0,U,55161,999,16444,.15018247E-2,.545E-5,0
ONEWEB-0621,2023-004Y,2026-06-06T20:45:59.938848,13.11415075,.00020212,87.8906,23.1196,82.9956,277.1402,0,U,55162,999,16445,-.2544837E-3,-.78E-6,0
ONEWEB-0622,2023-004Z,2026-06-06T20:53:19.466016,13.11415239,.00024281,87.8906,23.1209,95.2141,264.9264,0,U,55163,999,16444,-.71552903E-3,-.241E-5,0
ONEWEB-0623,2023-004AA,2026-06-06T20:13:30.207072,13.17648426,.00026151,87.9140,7.9373,84.1547,275.9883,0,U,55164,999,16622,-.18470537E-3,-.59E-6,0
ONEWEB-0624,2023-004AB,2026-06-06T14:26:39.347520,13.12928440,.00019018,87.8949,352.6926,89.4950,270.6397,0,U,55165,999,16668,.78028394E-3,.295E-5,0
ONEWEB-0625,2023-004AC,2026-06-06T19:58:55.804512,13.17648985,.00017825,87.9142,7.9341,82.7810,277.3524,0,U,55166,999,16621,-.31751425E-3,-.11E-5,0
ONEWEB-0626,2023-004AD,2026-06-06T19:44:21.446016,13.17649568,.00016373,87.9142,7.9360,99.7597,260.3720,0,U,55167,999,16621,-.26230963E-3,-.89E-6,0
ONEWEB-0627,2023-004AE,2026-06-06T15:48:37.534464,13.17647802,.00024684,87.9149,7.9701,88.5942,271.5473,0,U,55168,999,16619,.12827074E-2,.511E-5,0
ONEWEB-0628,2023-004AF,2026-06-06T19:23:36.690720,13.12444821,.00024757,87.8947,352.7178,83.1762,276.9648,0,U,55169,999,16667,-.80733113E-3,-.278E-5,0
ONEWEB-0629,2023-004AG,2026-06-06T20:41:26.241792,13.17650573,.00019973,87.9140,7.9251,78.2060,281.9295,0,U,55170,999,16622,.10330805E-3,.53E-6,0
ONEWEB-0631,2023-004AH,2026-06-06T18:46:27.922368,13.18685592,.00020043,87.9166,337.5062,104.6831,255.4523,0,U,55171,999,16830,-.19844915E-3,-.65E-6,0
ONEWEB-0709,2023-004AJ,2026-06-06T16:12:32.854464,13.11420571,.00013339,87.8895,23.1724,108.4846,251.6427,0,U,55172,999,16449,.46622712E-3,.178E-5,0
ONEWEB-0710,2023-004AK,2026-06-06T15:34:03.574272,13.17649443,.00019721,87.9141,7.9626,88.6080,271.5278,0,U,55173,999,16619,-.33492608E-3,-.117E-5,0
ONEWEB-0711,2023-004AL,2026-06-06T15:31:03.639360,13.11416558,.00025131,87.8895,23.1643,87.9121,272.2295,0,U,55174,999,16445,-.12880615E-2,-.444E-5,0
ONEWEB-0713,2023-004AM,2026-06-06T15:57:54.001440,13.11419523,.00021735,87.8904,23.1631,86.8574,273.2803,0,U,55175,999,16444,-.95918297E-3,-.327E-5,0
ONEWEB-0715,2023-004AN,2026-06-06T15:50:34.683360,13.11417510,.00016759,87.8899,23.1646,108.1779,251.9532,0,U,55176,999,16448,-.15702336E-2,-.544E-5,0
ONEWEB-0716,2023-004AP,2026-06-06T20:52:23.070144,13.17648750,.00016506,87.9143,7.9213,80.3477,279.7841,0,U,55177,999,16622,-.48523881E-3,-.176E-5,0
ONEWEB-0717,2023-004AQ,2026-06-06T20:28:04.624320,13.17648932,.00023597,87.9150,7.9113,94.4465,265.6936,0,U,55178,999,16627,-.76435587E-3,-.284E-5,0
ONEWEB-0719,2023-004AR,2026-06-06T15:14:37.472352,13.17648452,.0001831,87.9147,7.9348,81.8655,278.2684,0,U,55179,999,16619,-.51849041E-3,-.188E-5,0
ONEWEB-0530,2023-029A,2026-06-06T13:26:01.349376,13.20771003,.0002362,87.9181,276.5882,95.9219,264.2184,0,U,55796,999,15974,.19992E-3,.94E-6,0
